[{"OBJECT_NAME":"STARLINK-36791","OBJECT_ID":"2026-044L","EPOCH":"2026-03-15T06:00:00.999648","MEAN_MOTION":16.00027055,"ECCENTRICITY":0.00015043,"INCLINATION":97.2812,"RA_OF_ASC_NODE":34.5521,"ARG_OF_PERICENTER":100.0883,"MEAN_ANOMALY":59.6771,"EPHEMERIS_TYPE":0,"CLASSIFICATION_TYPE":"U","NORAD_CAT_ID":68111,"ELEMENT_SET_NO":999,"REV_AT_EPOCH":224,"BSTAR":-0.0035245171,"MEAN_MOTION_DOT":-0.01772427,"MEAN_MOTION_DDOT":0.00094824251},{"OBJECT_NAME":"STARLINK-36893","OBJECT_ID":"2026-044M","EPOCH":"2026-03-15T06:00:00.999648","MEAN_MOTION":16.00151061,"ECCENTRICITY":0.00015411,"INCLINATION":97.2809,"RA_OF_ASC_NODE":34.5527,"ARG_OF_PERICENTER":109.1707,"MEAN_ANOMALY":52.5957,"EPHEMERIS_TYPE":0,"CLASSIFICATION_TYPE":"U","NORAD_CAT_ID":68112,"ELEMENT_SET_NO":999,"REV_AT_EPOCH":229,"BSTAR":-0.0034818324,"MEAN_MOTION_DOT":-0.017634,"MEAN_MOTION_DDOT":0.00094053496},{"OBJECT_NAME":"STARLINK-36937","OBJECT_ID":"2026-044N","EPOCH":"2026-03-15T06:00:00.999648","MEAN_MOTION":16.00408293,"ECCENTRICITY":0.00015627,"INCLINATION":97.2811,"RA_OF_ASC_NODE":34.5552,"ARG_OF_PERICENTER":120.6351,"MEAN_ANOMALY":45.327,"EPHEMERIS_TYPE":0,"CLASSIFICATION_TYPE":"U","NORAD_CAT_ID":68113,"ELEMENT_SET_NO":999,"REV_AT_EPOCH":224,"BSTAR":-0.0034125894,"MEAN_MOTION_DOT":-0.01753835,"MEAN_MOTION_DDOT":0.00093374921},{"OBJECT_NAME":"STARLINK-36229","OBJECT_ID":"2026-044P","EPOCH":"2026-03-15T06:00:00.999648","MEAN_MOTION":16.00282954,"ECCENTRICITY":0.00015538,"INCLINATION":97.2805,"RA_OF_ASC_NODE":34.5532,"ARG_OF_PERICENTER":118.27,"MEAN_ANOMALY":45.7014,"EPHEMERIS_TYPE":0,"CLASSIFICATION_TYPE":"U","NORAD_CAT_ID":68114,"ELEMENT_SET_NO":999,"REV_AT_EPOCH":229,"BSTAR":-0.0034357971,"MEAN_MOTION_DOT":-0.01753255,"MEAN_MOTION_DDOT":0.00093181891},{"OBJECT_NAME":"STARLINK-36392","OBJECT_ID":"2026-044Q","EPOCH":"2026-03-15T06:00:00.999648","MEAN_MOTION":16.00556093,"ECCENTRICITY":0.0001645,"INCLINATION":97.2807,"RA_OF_ASC_NODE":34.5556,"ARG_OF_PERICENTER":118.9061,"MEAN_ANOMALY":49.5306,"EPHEMERIS_TYPE":0,"CLASSIFICATION_TYPE":"U","NORAD_CAT_ID":68115,"ELEMENT_SET_NO":999,"REV_AT_EPOCH":229,"BSTAR":-0.0034009465,"MEAN_MOTION_DOT":-0.01762517,"MEAN_MOTION_DDOT":0.00094406369},{"OBJECT_NAME":"STARLINK-36805","OBJECT_ID":"2026-044R","EPOCH":"2026-03-15T06:00:00.999648","MEAN_MOTION":16.00713889,"ECCENTRICITY":0.00015699,"INCLINATION":97.2805,"RA_OF_ASC_NODE":34.5566,"ARG_OF_PERICENTER":110.0407,"MEAN_ANOMALY":61.1778,"EPHEMERIS_TYPE":0,"CLASSIFICATION_TYPE":"U","NORAD_CAT_ID":68116,"ELEMENT_SET_NO":999,"REV_AT_EPOCH":229,"BSTAR":-0.0033885604,"MEAN_MOTION_DOT":-0.01771813,"MEAN_MOTION_DDOT":0.00095519622},{"OBJECT_NAME":"STARLINK-36844","OBJECT_ID":"2026-044S","EPOCH":"2026-03-15T06:00:00.999648","MEAN_MOTION":16.00843906,"ECCENTRICITY":0.00015999,"INCLINATION":97.2803,"RA_OF_ASC_NODE":34.5572,"ARG_OF_PERICENTER":117.6885,"MEAN_ANOMALY":55.5714,"EPHEMERIS_TYPE":0,"CLASSIFICATION_TYPE":"U","NORAD_CAT_ID":68117,"ELEMENT_SET_NO":999,"REV_AT_EPOCH":224,"BSTAR":-0.0033605199,"MEAN_MOTION_DOT":-0.01770259,"MEAN_MOTION_DDOT":0.00095506853},{"OBJECT_NAME":"STARLINK-36789","OBJECT_ID":"2026-044T","EPOCH":"2026-03-15T06:00:00.999648","MEAN_MOTION":16.01003254,"ECCENTRICITY":0.00015363,"INCLINATION":97.2803,"RA_OF_ASC_NODE":34.5594,"ARG_OF_PERICENTER":110.0234,"MEAN_ANOMALY":67.9255,"EPHEMERIS_TYPE":0,"CLASSIFICATION_TYPE":"U","NORAD_CAT_ID":68118,"ELEMENT_SET_NO":999,"REV_AT_EPOCH":224,"BSTAR":-0.0033743464,"MEAN_MOTION_DOT":-0.0179351,"MEAN_MOTION_DDOT":0.00098063605},{"OBJECT_NAME":"STARLINK-36850","OBJECT_ID":"2026-044U","EPOCH":"2026-03-15T06:00:00.999648","MEAN_MOTION":16.011343,"ECCENTRICITY":0.00015898,"INCLINATION":97.2802,"RA_OF_ASC_NODE":34.5607,"ARG_OF_PERICENTER":114.4842,"MEAN_ANOMALY":65.583,"EPHEMERIS_TYPE":0,"CLASSIFICATION_TYPE":"U","NORAD_CAT_ID":68119,"ELEMENT_SET_NO":999,"REV_AT_EPOCH":224,"BSTAR":-0.0033409326,"MEAN_MOTION_DOT":-0.01789192,"MEAN_MOTION_DDOT":0.00097770043},{"OBJECT_NAME":"STARLINK-36868","OBJECT_ID":"2026-044V","EPOCH":"2026-03-15T06:00:00.999648","MEAN_MOTION":16.01291188,"ECCENTRICITY":0.00015658,"INCLINATION":97.2799,"RA_OF_ASC_NODE":34.5617,"ARG_OF_PERICENTER":110.7804,"MEAN_ANOMALY":71.9921,"EPHEMERIS_TYPE":0,"CLASSIFICATION_TYPE":"U","NORAD_CAT_ID":68120,"ELEMENT_SET_NO":999,"REV_AT_EPOCH":224,"BSTAR":-0.0033357326,"MEAN_MOTION_DOT":-0.01802394,"MEAN_MOTION_DDOT":0.00099317333},{"OBJECT_NAME":"STARLINK-36855","OBJECT_ID":"2026-044W","EPOCH":"2026-03-15T06:00:00.999648","MEAN_MOTION":16.0143788,"ECCENTRICITY":0.00016056,"INCLINATION":97.2799,"RA_OF_ASC_NODE":34.563,"ARG_OF_PERICENTER":115.7674,"MEAN_ANOMALY":69.4556,"EPHEMERIS_TYPE":0,"CLASSIFICATION_TYPE":"U","NORAD_CAT_ID":68121,"ELEMENT_SET_NO":999,"REV_AT_EPOCH":224,"BSTAR":-0.0033131124,"MEAN_MOTION_DOT":-0.01805309,"MEAN_MOTION_DDOT":0.00099793452},{"OBJECT_NAME":"STARLINK-36366","OBJECT_ID":"2026-044X","EPOCH":"2026-03-15T06:00:00.999648","MEAN_MOTION":16.01558765,"ECCENTRICITY":0.00015772,"INCLINATION":97.2798,"RA_OF_ASC_NODE":34.5636,"ARG_OF_PERICENTER":115.9625,"MEAN_ANOMALY":71.249,"EPHEMERIS_TYPE":0,"CLASSIFICATION_TYPE":"U","NORAD_CAT_ID":68122,"ELEMENT_SET_NO":999,"REV_AT_EPOCH":229,"BSTAR":-0.0032572692,"MEAN_MOTION_DOT":-0.01787473,"MEAN_MOTION_DDOT":0.00098084022},{"OBJECT_NAME":"STARLINK-36922","OBJECT_ID":"2026-044Y","EPOCH":"2026-03-15T06:00:00.999648","MEAN_MOTION":16.01840765,"ECCENTRICITY":0.00016224,"INCLINATION":97.2798,"RA_OF_ASC_NODE":34.566,"ARG_OF_PERICENTER":114.8703,"MEAN_ANOMALY":76.6639,"EPHEMERIS_TYPE":0,"CLASSIFICATION_TYPE":"U","NORAD_CAT_ID":68123,"ELEMENT_SET_NO":999,"REV_AT_EPOCH":229,"BSTAR":-0.0032301428,"MEAN_MOTION_DOT":-0.01801532,"MEAN_MOTION_DDOT":0.00099877967},{"OBJECT_NAME":"STARLINK-36938","OBJECT_ID":"2026-044Z","EPOCH":"2026-03-15T06:00:00.999648","MEAN_MOTION":16.01965872,"ECCENTRICITY":0.00015564,"INCLINATION":97.2797,"RA_OF_ASC_NODE":34.5668,"ARG_OF_PERICENTER":117.7987,"MEAN_ANOMALY":75.6768,"EPHEMERIS_TYPE":0,"CLASSIFICATION_TYPE":"U","NORAD_CAT_ID":68124,"ELEMENT_SET_NO":999,"REV_AT_EPOCH":229,"BSTAR":-0.0032004222,"MEAN_MOTION_DOT":-0.01797947,"MEAN_MOTION_DDOT":0.00099652282},{"OBJECT_NAME":"STARLINK-36839","OBJECT_ID":"2026-044AA","EPOCH":"2026-03-15T06:00:00.999648","MEAN_MOTION":16.01714585,"ECCENTRICITY":0.00015742,"INCLINATION":97.2801,"RA_OF_ASC_NODE":34.5648,"ARG_OF_PERICENTER":109.605,"MEAN_ANOMALY":80.0278,"EPHEMERIS_TYPE":0,"CLASSIFICATION_TYPE":"U","NORAD_CAT_ID":68125,"ELEMENT_SET_NO":999,"REV_AT_EPOCH":224,"BSTAR":-0.0032591351,"MEAN_MOTION_DOT":-0.01804446,"MEAN_MOTION_DDOT":0.0010003238}]
