STARLINK-36791          
1 68111U 26044L   26074.25001157 -.01772427  94824-3 -35245-2 0  9996
2 68111  97.2812  34.5521 0001504 100.0883  59.6771 16.00027055  2247
STARLINK-36893          
1 68112U 26044M   26074.25001157 -.01763400  94053-3 -34818-2 0  9997
2 68112  97.2809  34.5527 0001541 109.1707  52.5957 16.00151061  2294
STARLINK-36937          
1 68113U 26044N   26074.25001157 -.01753835  93375-3 -34126-2 0  9997
2 68113  97.2811  34.5552 0001562 120.6351  45.3270 16.00408293  2247
STARLINK-36229          
1 68114U 26044P   26074.25001157 -.01753255  93182-3 -34358-2 0  9997
2 68114  97.2805  34.5532 0001553 118.2700  45.7014 16.00282954  2299
STARLINK-36392          
1 68115U 26044Q   26074.25001157 -.01762517  94406-3 -34009-2 0  9992
2 68115  97.2807  34.5556 0001645 118.9061  49.5306 16.00556093  2291
STARLINK-36805          
1 68116U 26044R   26074.25001157 -.01771813  95520-3 -33886-2 0  9992
2 68116  97.2805  34.5566 0001569 110.0407  61.1778 16.00713889  2294
STARLINK-36844          
1 68117U 26044S   26074.25001157 -.01770259  95507-3 -33605-2 0  9990
2 68117  97.2803  34.5572 0001599 117.6885  55.5714 16.00843906  2242
STARLINK-36789          
1 68118U 26044T   26074.25001157 -.01793510  98064-3 -33743-2 0  9990
2 68118  97.2803  34.5594 0001536 110.0234  67.9255 16.01003254  2245
STARLINK-36850          
1 68119U 26044U   26074.25001157 -.01789192  97770-3 -33409-2 0  9994
2 68119  97.2802  34.5607 0001589 114.4842  65.5830 16.01134300  2241
STARLINK-36868          
1 68120U 26044V   26074.25001157 -.01802394  99317-3 -33357-2 0  9997
2 68120  97.2799  34.5617 0001565 110.7804  71.9921 16.01291188  2240
STARLINK-36855          
1 68121U 26044W   26074.25001157 -.01805309  99793-3 -33131-2 0  9995
2 68121  97.2799  34.5630 0001605 115.7674  69.4556 16.01437880  2248
STARLINK-36366          
1 68122U 26044X   26074.25001157 -.01787473  98084-3 -32573-2 0  9998
2 68122  97.2798  34.5636 0001577 115.9625  71.2490 16.01558765  2299
STARLINK-36922          
1 68123U 26044Y   26074.25001157 -.01801532  99878-3 -32301-2 0  9993
2 68123  97.2798  34.5660 0001622 114.8703  76.6639 16.01840765  2291
STARLINK-36938          
1 68124U 26044Z   26074.25001157 -.01797947  99652-3 -32004-2 0  9998
2 68124  97.2797  34.5668 0001556 117.7987  75.6768 16.01965872  2290
STARLINK-36839          
1 68125U 26044AA  26074.25001157 -.01804446  10003-2 -32591-2 0  9995
2 68125  97.2801  34.5648 0001574 109.6050  80.0278 16.01714585  2240
